{
  "type": "FeatureCollection",
  "features": [
    {
      "type": "Feature",
      "properties": {
        "norad_id": 44709,
        "name": "BEIDOU-3 IGSO-3 (C40)",
        "group": "beidou",
        "lat": 19.748670976270915,
        "lon": -62.60882416085657,
        "alt_km": 35975.60421578108,
        "timestamp": "2025-12-09T07:41:33.473383+00:00",
        "meta_object_name": "BEIDOU-3 IGSO-3 (C40)",
        "meta_object_id": "2019-073A",
        "meta_epoch": "2025-11-20T07:11:22.740000",
        "meta_mean_motion": 1.00250097,
        "meta_eccentricity": 0.0044538,
        "meta_inclination": 55.163,
        "meta_ra_of_asc_node": 283.159,
        "meta_arg_of_pericenter": 191.5856,
        "meta_mean_anomaly": 168.2409,
        "meta_ephemeris_type": 0,
        "meta_classification_type": "U",
        "meta_norad_cat_id": 44709,
        "meta_element_set_no": 999,
        "meta_rev_at_epoch": 2236,
        "meta_bstar": 0,
        "meta_mean_motion_dot": -2.06e-06,
        "meta_mean_motion_ddot": 0,
        "tle_line1": "1 44709U 19073A   25324.29956875 -.00000206  00000+0  00000+0 0  9998",
        "tle_line2": "2 44709  55.1630 283.1590 0044538 191.5856 168.2409  1.00250097 22360"
      },
      "geometry": {
        "type": "Point",
        "coordinates": [
          -62.60882416085657,
          19.748670976270915
        ]
      }
    },
    {
      "type": "Feature",
      "properties": {
        "norad_id": 44793,
        "name": "BEIDOU-3 M22 (C44)",
        "group": "beidou",
        "lat": -27.4256819597957,
        "lon": 148.53786752208995,
        "alt_km": 21547.12774132037,
        "timestamp": "2025-12-09T07:41:33.473397+00:00",
        "meta_object_name": "BEIDOU-3 M22 (C44)",
        "meta_object_id": "2019-078A",
        "meta_epoch": "2025-12-05T05:48:12.053952",
        "meta_mean_motion": 1.86231816,
        "meta_eccentricity": 0.00057288,
        "meta_inclination": 54.1154,
        "meta_ra_of_asc_node": 306.6493,
        "meta_arg_of_pericenter": 22.8633,
        "meta_mean_anomaly": 337.1445,
        "meta_ephemeris_type": 0,
        "meta_classification_type": "U",
        "meta_norad_cat_id": 44793,
        "meta_element_set_no": 999,
        "meta_rev_at_epoch": 4103,
        "meta_bstar": 0,
        "meta_mean_motion_dot": -6.9e-07,
        "meta_mean_motion_ddot": 0,
        "tle_line1": "1 44793U 19078A   25339.24180618 -.00000069  00000+0  00000+0 0  9998",
        "tle_line2": "2 44793  54.1154 306.6493 0005728  22.8633 337.1445  1.86231816 41037"
      },
      "geometry": {
        "type": "Point",
        "coordinates": [
          148.53786752208995,
          -27.4256819597957
        ]
      }
    },
    {
      "type": "Feature",
      "properties": {
        "norad_id": 44794,
        "name": "BEIDOU-3 M21 (C43)",
        "group": "beidou",
        "lat": 43.13035382496753,
        "lon": 83.73153815675589,
        "alt_km": 21527.295137508525,
        "timestamp": "2025-12-09T07:41:33.473408+00:00",
        "meta_object_name": "BEIDOU-3 M21 (C43)",
        "meta_object_id": "2019-078B",
        "meta_epoch": "2025-12-08T14:25:34.118976",
        "meta_mean_motion": 1.86227419,
        "meta_eccentricity": 0.00038351,
        "meta_inclination": 54.0855,
        "meta_ra_of_asc_node": 306.4969,
        "meta_arg_of_pericenter": 9.829,
        "meta_mean_anomaly": 350.1669,
        "meta_ephemeris_type": 0,
        "meta_classification_type": "U",
        "meta_norad_cat_id": 44794,
        "meta_element_set_no": 999,
        "meta_rev_at_epoch": 4110,
        "meta_bstar": 0,
        "meta_mean_motion_dot": -7.4e-07,
        "meta_mean_motion_ddot": 0,
        "tle_line1": "1 44794U 19078B   25342.60108934 -.00000074  00000+0  00000+0 0  9990",
        "tle_line2": "2 44794  54.0855 306.4969 0003835   9.8290 350.1669  1.86227419 41107"
      },
      "geometry": {
        "type": "Point",
        "coordinates": [
          83.73153815675589,
          43.13035382496753
        ]
      }
    },
    {
      "type": "Feature",
      "properties": {
        "norad_id": 44864,
        "name": "BEIDOU-3 M19 (C41)",
        "group": "beidou",
        "lat": -33.76159327430933,
        "lon": 42.72893216790698,
        "alt_km": 21491.292339618736,
        "timestamp": "2025-12-09T07:41:33.473420+00:00",
        "meta_object_name": "BEIDOU-3 M19 (C41)",
        "meta_object_id": "2019-090A",
        "meta_epoch": "2025-12-02T22:27:31.551840",
        "meta_mean_motion": 1.86231053,
        "meta_eccentricity": 0.00175607,
        "meta_inclination": 56.3847,
        "meta_ra_of_asc_node": 69.2872,
        "meta_arg_of_pericenter": 284.9296,
        "meta_mean_anomaly": 72.494,
        "meta_ephemeris_type": 0,
        "meta_classification_type": "U",
        "meta_norad_cat_id": 44864,
        "meta_element_set_no": 999,
        "meta_rev_at_epoch": 4057,
        "meta_bstar": 0,
        "meta_mean_motion_dot": -4.9e-07,
        "meta_mean_motion_ddot": 0,
        "tle_line1": "1 44864U 19090A   25336.93578185 -.00000049  00000+0  00000+0 0  9992",
        "tle_line2": "2 44864  56.3847  69.2872 0017560 284.9296  72.4940  1.86231053 40575"
      },
      "geometry": {
        "type": "Point",
        "coordinates": [
          42.72893216790698,
          -33.76159327430933
        ]
      }
    },
    {
      "type": "Feature",
      "properties": {
        "norad_id": 44865,
        "name": "BEIDOU-3 M20 (C42)",
        "group": "beidou",
        "lat": 38.122771312592256,
        "lon": 100.52668243587945,
        "alt_km": 21537.635154190444,
        "timestamp": "2025-12-09T07:41:33.473432+00:00",
        "meta_object_name": "BEIDOU-3 M20 (C42)",
        "meta_object_id": "2019-090B",
        "meta_epoch": "2025-12-08T06:57:34.455168",
        "meta_mean_motion": 1.8623116,
        "meta_eccentricity": 0.00149301,
        "meta_inclination": 56.3913,
        "meta_ra_of_asc_node": 69.143,
        "meta_arg_of_pericenter": 297.776,
        "meta_mean_anomaly": 138.9742,
        "meta_ephemeris_type": 0,
        "meta_classification_type": "U",
        "meta_norad_cat_id": 44865,
        "meta_element_set_no": 999,
        "meta_rev_at_epoch": 4066,
        "meta_bstar": 0,
        "meta_mean_motion_dot": -4.5e-07,
        "meta_mean_motion_ddot": 0,
        "tle_line1": "1 44865U 19090B   25342.28998212 -.00000045  00000+0  00000+0 0  9991",
        "tle_line2": "2 44865  56.3913  69.1430 0014930 297.7760 138.9742  1.86231160 40662"
      },
      "geometry": {
        "type": "Point",
        "coordinates": [
          100.52668243587945,
          38.122771312592256
        ]
      }
    },
    {
      "type": "Feature",
      "properties": {
        "norad_id": 45344,
        "name": "BEIDOU-3 G2 (C60)",
        "group": "beidou",
        "lat": -1.922810140869732,
        "lon": -86.34125521347062,
        "alt_km": 35771.0007448182,
        "timestamp": "2025-12-09T07:41:33.473444+00:00",
        "meta_object_name": "BEIDOU-3 G2 (C60)",
        "meta_object_id": "2020-017A",
        "meta_epoch": "2025-12-08T17:24:33.367680",
        "meta_mean_motion": 1.00273181,
        "meta_eccentricity": 0.00043587,
        "meta_inclination": 2.49,
        "meta_ra_of_asc_node": 43.8378,
        "meta_arg_of_pericenter": 265.5358,
        "meta_mean_anomaly": 109.5017,
        "meta_ephemeris_type": 0,
        "meta_classification_type": "U",
        "meta_norad_cat_id": 45344,
        "meta_element_set_no": 999,
        "meta_rev_at_epoch": 2135,
        "meta_bstar": 0,
        "meta_mean_motion_dot": -1.39e-06,
        "meta_mean_motion_ddot": 0,
        "tle_line1": "1 45344U 20017A   25342.72538620 -.00000139  00000+0  00000+0 0  9991",
        "tle_line2": "2 45344   2.4900  43.8378 0004358 265.5358 109.5017  1.00273181 21351"
      },
      "geometry": {
        "type": "Point",
        "coordinates": [
          -86.34125521347062,
          -1.922810140869732
        ]
      }
    },
    {
      "type": "Feature",
      "properties": {
        "norad_id": 45807,
        "name": "BEIDOU-3 G3 (C61)",
        "group": "beidou",
        "lat": -1.6875731088082826,
        "lon": -55.85872868970401,
        "alt_km": 35776.12097484818,
        "timestamp": "2025-12-09T07:41:33.473456+00:00",
        "meta_object_name": "BEIDOU-3 G3 (C61)",
        "meta_object_id": "2020-040A",
        "meta_epoch": "2025-12-08T17:33:17.532288",
        "meta_mean_motion": 1.00275813,
        "meta_eccentricity": 0.00060306,
        "meta_inclination": 1.9816,
        "meta_ra_of_asc_node": 66.5886,
        "meta_arg_of_pericenter": 306.262,
        "meta_mean_anomaly": 78.7159,
        "meta_ephemeris_type": 0,
        "meta_classification_type": "U",
        "meta_norad_cat_id": 45807,
        "meta_element_set_no": 999,
        "meta_rev_at_epoch": 2016,
        "meta_bstar": 0,
        "meta_mean_motion_dot": -3.52e-06,
        "meta_mean_motion_ddot": 0,
        "tle_line1": "1 45807U 20040A   25342.73145292 -.00000352  00000+0  00000+0 0  9998",
        "tle_line2": "2 45807   1.9816  66.5886 0006030 306.2620  78.7159  1.00275813 20161"
      },
      "geometry": {
        "type": "Point",
        "coordinates": [
          -55.85872868970401,
          -1.6875731088082826
        ]
      }
    }
  ]
}